[{"OBJECT_NAME":"STARLINK-34634","OBJECT_ID":"2025-167B","EPOCH":"2026-03-09T07:04:02.665056","MEAN_MOTION":15.30199395,"ECCENTRICITY":0.00010469,"INCLINATION":53.1605,"RA_OF_ASC_NODE":26.1097,"ARG_OF_PERICENTER":89.7103,"MEAN_ANOMALY":270.4017,"EPHEMERIS_TYPE":0,"CLASSIFICATION_TYPE":"U","NORAD_CAT_ID":65079,"ELEMENT_SET_NO":999,"REV_AT_EPOCH":3345,"BSTAR":0.0012923783,"MEAN_MOTION_DOT":0.00038113,"MEAN_MOTION_DDOT":0},{"OBJECT_NAME":"SPACEMOBILE-001 DEB","OBJECT_ID":"2024-163F","EPOCH":"2026-03-09T07:17:56.452704","MEAN_MOTION":15.32884299,"ECCENTRICITY":0.00071876,"INCLINATION":52.9956,"RA_OF_ASC_NODE":27.518,"ARG_OF_PERICENTER":196.7865,"MEAN_ANOMALY":163.2898,"EPHEMERIS_TYPE":0,"CLASSIFICATION_TYPE":"U","NORAD_CAT_ID":62369,"ELEMENT_SET_NO":999,"REV_AT_EPOCH":7117,"BSTAR":0.00044817004,"MEAN_MOTION_DOT":0.00014099,"MEAN_MOTION_DDOT":0}]
